{"type": "FeatureCollection", "features": [ {"type": "Feature", "properties": {"norad_id": 49810, "name": "GSAT0224 (GALILEO 28)", "group": "gnss", "lat": 44.23170263670275, "lon": 127.8293837437178, "alt_km": 23224.5653601461, "timestamp": "2025-12-13T15:35:12.350836+00:00", "meta": {"OBJECT_NAME": "GSAT0224 (GALILEO 28)", "OBJECT_ID": "2021-116B", "EPOCH": "2025-12-10T19:26:19.690368", "MEAN_MOTION": 1.70475895, "ECCENTRICITY": 0.000393, "INCLINATION": 57.2205, "RA_OF_ASC_NODE": 346.7629, "ARG_OF_PERICENTER": 256.2791, "MEAN_ANOMALY": 284.9883, "EPHEMERIS_TYPE": 0, "CLASSIFICATION_TYPE": "U", "NORAD_CAT_ID": 49810, "ELEMENT_SET_NO": 999, "REV_AT_EPOCH": 2499, "BSTAR": 0, "MEAN_MOTION_DOT": -8.7e-07, "MEAN_MOTION_DDOT": 0}, "tle": {"line1": "1 49810U 21116B   25344.80995012 -.00000087  00000+0  00000+0 0  9999", "line2": "2 49810  57.2205 346.7629 0003930 256.2791 284.9883  1.70475895 24991"}}, "geometry": {"type": "Point", "coordinates": [127.8293837437178, 44.23170263670275]}}, {"type": "Feature", "properties": {"norad_id": 52984, "name": "COSMOS 2557 (706K)", "group": "gnss", "lat": -61.88379756777571, "lon": -102.72298480122261, "alt_km": 19101.52644204298, "timestamp": "2025-12-13T15:35:12.350850+00:00", "meta": {"OBJECT_NAME": "COSMOS 2557 (706K)", "OBJECT_ID": "2022-075A", "EPOCH": "2025-12-07T04:21:00.419904", "MEAN_MOTION": 2.13101754, "ECCENTRICITY": 0.00137049, "INCLINATION": 64.4129, "RA_OF_ASC_NODE": 321.247, "ARG_OF_PERICENTER": 276.9, "MEAN_ANOMALY": 82.939, "EPHEMERIS_TYPE": 0, "CLASSIFICATION_TYPE": "U", "NORAD_CAT_ID": 52984, "ELEMENT_SET_NO": 999, "REV_AT_EPOCH": 2662, "BSTAR": 0, "MEAN_MOTION_DOT": -5.2e-07, "MEAN_MOTION_DDOT": 0}, "tle": {"line1": "1 52984U 22075A   25341.18125486 -.00000052  00000+0  00000+0 0  9990", "line2": "2 52984  64.4129 321.2470 0013704 276.9000  82.9390  2.13101754 26625"}}, "geometry": {"type": "Point", "coordinates": [-102.72298480122261, -61.88379756777571]}}, {"type": "Feature", "properties": {"norad_id": 54031, "name": "COSMOS 2559 (707K)", "group": "gnss", "lat": 51.88397186480178, "lon": -1.2052694429737636, "alt_km": 19144.013374906895, "timestamp": "2025-12-13T15:35:12.350863+00:00", "meta": {"OBJECT_NAME": "COSMOS 2559 (707K)", "OBJECT_ID": "2022-130A", "EPOCH": "2025-12-12T15:09:27.731808", "MEAN_MOTION": 2.13101353, "ECCENTRICITY": 0.00118034, "INCLINATION": 64.3823, "RA_OF_ASC_NODE": 321.1449, "ARG_OF_PERICENTER": 192.421, "MEAN_ANOMALY": 167.5503, "EPHEMERIS_TYPE": 0, "CLASSIFICATION_TYPE": "U", "NORAD_CAT_ID": 54031, "ELEMENT_SET_NO": 999, "REV_AT_EPOCH": 2471, "BSTAR": 0, "MEAN_MOTION_DOT": -6e-07, "MEAN_MOTION_DDOT": 0}, "tle": {"line1": "1 54031U 22130A   25346.63157097 -.00000060  00000+0  00000+0 0  9994", "line2": "2 54031  64.3823 321.1449 0011803 192.4210 167.5503  2.13101353 24717"}}, "geometry": {"type": "Point", "coordinates": [-1.2052694429737636, 51.88397186480178]}}, {"type": "Feature", "properties": {"norad_id": 54377, "name": "COSMOS 2564 (761)", "group": "gnss", "lat": -0.34155776008317784, "lon": 19.032658027650935, "alt_km": 19110.47737929248, "timestamp": "2025-12-13T15:35:12.350874+00:00", "meta": {"OBJECT_NAME": "COSMOS 2564 (761)", "OBJECT_ID": "2022-161A", "EPOCH": "2025-12-12T22:40:51.150144", "MEAN_MOTION": 2.13102083, "ECCENTRICITY": 0.00086043, "INCLINATION": 64.7382, "RA_OF_ASC_NODE": 198.8921, "ARG_OF_PERICENTER": 204.7293, "MEAN_ANOMALY": 155.3019, "EPHEMERIS_TYPE": 0, "CLASSIFICATION_TYPE": "U", "NORAD_CAT_ID": 54377, "ELEMENT_SET_NO": 999, "REV_AT_EPOCH": 2366, "BSTAR": 0, "MEAN_MOTION_DOT": 7.5e-07, "MEAN_MOTION_DDOT": 0}, "tle": {"line1": "1 54377U 22161A   25346.94503646  .00000075  00000+0  00000+0 0  9995", "line2": "2 54377  64.7382 198.8921 0008604 204.7293 155.3019  2.13102083 23662"}}, "geometry": {"type": "Point", "coordinates": [19.032658027650935, -0.34155776008317784]}}, {"type": "Feature", "properties": {"norad_id": 55268, "name": "GPS BIII-6  (PRN 28)", "group": "gnss", "lat": 45.1943705781464, "lon": -68.85659201434125, "alt_km": 20182.808008032604, "timestamp": "2025-12-13T15:35:12.350887+00:00", "meta": {"OBJECT_NAME": "GPS BIII-6  (PRN 28)", "OBJECT_ID": "2023-009A", "EPOCH": "2025-12-12T05:45:10.561248", "MEAN_MOTION": 2.00555751, "ECCENTRICITY": 0.00036962, "INCLINATION": 55.1051, "RA_OF_ASC_NODE": 155.8647, "ARG_OF_PERICENTER": 357.1101, "MEAN_ANOMALY": 185.0409, "EPHEMERIS_TYPE": 0, "CLASSIFICATION_TYPE": "U", "NORAD_CAT_ID": 55268, "ELEMENT_SET_NO": 999, "REV_AT_EPOCH": 2149, "BSTAR": 0, "MEAN_MOTION_DOT": 9.5e-07, "MEAN_MOTION_DDOT": 0}, "tle": {"line1": "1 55268U 23009A   25346.23970557  .00000095  00000+0  00000+0 0  9990", "line2": "2 55268  55.1051 155.8647 0003696 357.1101 185.0409  2.00555751 21496"}}, "geometry": {"type": "Point", "coordinates": [-68.85659201434125, 45.1943705781464]}}, {"type": "Feature", "properties": {"norad_id": 56564, "name": "BEIDOU-3 G4 (C62)", "group": "gnss", "lat": 0.0910027824883938, "lon": 116.40794191383537, "alt_km": 35779.654588415964, "timestamp": "2025-12-13T15:35:12.350899+00:00", "meta": {"OBJECT_NAME": "BEIDOU-3 G4 (C62)", "OBJECT_ID": "2023-066A", "EPOCH": "2025-12-12T22:48:10.954656", "MEAN_MOTION": 1.00271634, "ECCENTRICITY": 0.00028815, "INCLINATION": 0.8139, "RA_OF_ASC_NODE": 302.0742, "ARG_OF_PERICENTER": 231.9368, "MEAN_ANOMALY": 49.9888, "EPHEMERIS_TYPE": 0, "CLASSIFICATION_TYPE": "U", "NORAD_CAT_ID": 56564, "ELEMENT_SET_NO": 999, "REV_AT_EPOCH": 952, "BSTAR": 0, "MEAN_MOTION_DOT": -9.8e-07, "MEAN_MOTION_DDOT": 0}, "tle": {"line1": "1 56564U 23066A   25346.95012679 -.00000098  00000+0  00000+0 0  9998", "line2": "2 56564   0.8139 302.0742 0002881 231.9368  49.9888  1.00271634  9524"}}, "geometry": {"type": "Point", "coordinates": [116.40794191383537, 0.0910027824883938]}}, {"type": "Feature", "properties": {"norad_id": 56759, "name": "NVS-01 (IRNSS-1J)", "group": "gnss", "lat": -0.6256735243069222, "lon": 85.81396341393707, "alt_km": 35822.672509026896, "timestamp": "2025-12-13T15:35:12.350910+00:00", "meta": {"OBJECT_NAME": "NVS-01 (IRNSS-1J)", "OBJECT_ID": "2023-076A", "EPOCH": "2025-12-12T22:39:23.531904", "MEAN_MOTION": 1.00277436, "ECCENTRICITY": 0.00089757, "INCLINATION": 2.6174, "RA_OF_ASC_NODE": 251.5897, "ARG_OF_PERICENTER": 14.4246, "MEAN_ANOMALY": 285.1618, "EPHEMERIS_TYPE": 0, "CLASSIFICATION_TYPE": "U", "NORAD_CAT_ID": 56759, "ELEMENT_SET_NO": 999, "REV_AT_EPOCH": 924, "BSTAR": 0, "MEAN_MOTION_DOT": -3.21e-06, "MEAN_MOTION_DDOT": 0}, "tle": {"line1": "1 56759U 23076A   25346.94402236 -.00000321  00000+0  00000+0 0  9995", "line2": "2 56759   2.6174 251.5897 0008975  14.4246 285.1618  1.00277436  9247"}}, "geometry": {"type": "Point", "coordinates": [85.81396341393707, -0.6256735243069222]}}, {"type": "Feature", "properties": {"norad_id": 57517, "name": "COSMOS 2569 (703K)", "group": "gnss", "lat": 9.083760094206621, "lon": -105.34708477945205, "alt_km": 19141.22938027753, "timestamp": "2025-12-13T15:35:12.350922+00:00", "meta": {"OBJECT_NAME": "COSMOS 2569 (703K)", "OBJECT_ID": "2023-114A", "EPOCH": "2025-12-11T01:57:11.687328", "MEAN_MOTION": 2.13103934, "ECCENTRICITY": 0.0010485, "INCLINATION": 65.1933, "RA_OF_ASC_NODE": 78.9695, "ARG_OF_PERICENTER": 287.0346, "MEAN_ANOMALY": 72.8683, "EPHEMERIS_TYPE": 0, "CLASSIFICATION_TYPE": "U", "NORAD_CAT_ID": 57517, "ELEMENT_SET_NO": 999, "REV_AT_EPOCH": 1825, "BSTAR": 0, "MEAN_MOTION_DOT": -2.7e-07, "MEAN_MOTION_DDOT": 0}, "tle": {"line1": "1 57517U 23114A   25345.08138527 -.00000027  00000+0  00000+0 0  9997", "line2": "2 57517  65.1933  78.9695 0010485 287.0346  72.8683  2.13103934 18252"}}, "geometry": {"type": "Point", "coordinates": [-105.34708477945205, 9.083760094206621]}}, {"type": "Feature", "properties": {"norad_id": 58654, "name": "BEIDOU-3 M28 (C50)", "group": "gnss", "lat": 55.54375218034272, "lon": 162.42961782661348, "alt_km": 21528.336745807635, "timestamp": "2025-12-13T15:35:12.350933+00:00", "meta": {"OBJECT_NAME": "BEIDOU-3 M28 (C50)", "OBJECT_ID": "2023-207A", "EPOCH": "2025-12-11T21:37:33.991968", "MEAN_MOTION": 1.86229651, "ECCENTRICITY": 0.00023562, "INCLINATION": 55.5838, "RA_OF_ASC_NODE": 68.6297, "ARG_OF_PERICENTER": 269.3243, "MEAN_ANOMALY": 90.6691, "EPHEMERIS_TYPE": 0, "CLASSIFICATION_TYPE": "U", "NORAD_CAT_ID": 58654, "ELEMENT_SET_NO": 999, "REV_AT_EPOCH": 1335, "BSTAR": 0, "MEAN_MOTION_DOT": -6.9e-07, "MEAN_MOTION_DDOT": 0}, "tle": {"line1": "1 58654U 23207A   25345.90108787 -.00000069  00000+0  00000+0 0  9995", "line2": "2 58654  55.5838  68.6297 0002356 269.3243  90.6691  1.86229651 13350"}}, "geometry": {"type": "Point", "coordinates": [162.42961782661348, 55.54375218034272]}}, {"type": "Feature", "properties": {"norad_id": 58655, "name": "BEIDOU-3 M26 (C48)", "group": "gnss", "lat": -37.71026476244767, "lon": -79.47961697938837, "alt_km": 21523.25026155466, "timestamp": "2025-12-13T15:35:12.350944+00:00", "meta": {"OBJECT_NAME": "BEIDOU-3 M26 (C48)", "OBJECT_ID": "2023-207B", "EPOCH": "2025-12-11T03:52:58.066752", "MEAN_MOTION": 1.86231203, "ECCENTRICITY": 0.000378, "INCLINATION": 55.5852, "RA_OF_ASC_NODE": 68.6411, "ARG_OF_PERICENTER": 255.3563, "MEAN_ANOMALY": 104.6232, "EPHEMERIS_TYPE": 0, "CLASSIFICATION_TYPE": "U", "NORAD_CAT_ID": 58655, "ELEMENT_SET_NO": 999, "REV_AT_EPOCH": 1332, "BSTAR": 0, "MEAN_MOTION_DOT": -6.3e-07, "MEAN_MOTION_DDOT": 0}, "tle": {"line1": "1 58655U 23207B   25345.16178318 -.00000063  00000+0  00000+0 0  9995", "line2": "2 58655  55.5852  68.6411 0003780 255.3563 104.6232  1.86231203 13327"}}, "geometry": {"type": "Point", "coordinates": [-79.47961697938837, -37.71026476244767]}}]}